PROGRESS-MS 32          
1 65586U 25204A   25300.16780669  .00014439  00000+0  26496-3 0  9996
2 65586  51.6344  13.0478 0004675 344.0892  15.9949 15.49510292   274
CYGNUS NG-23            
1 65616U 25208A   25300.16780669  .00014439  00000+0  26496-3 0  9994
2 65616  51.6344  13.0478 0004675 344.0892  15.9949 15.49510292   223
DRAGONFLY               
1 65729U 98067XH  25300.49488485  .00088726  00000+0  11296-2 0  9990
2 65729  51.6318   9.9858 0002792  48.1063 312.0167 15.58588193  5925
1998-067XJ              
1 65730U 98067XJ  25300.48932711  .00210952  00000+0  20240-2 0  9994
2 65730  51.6300   9.1961 0010099  21.4089 338.7327 15.65354715  5939
1998-067XK              
1 65731U 98067XK  25300.44915803  .00061633  00000+0  84110-3 0  9991
2 65731  51.6328  10.4311 0004433  21.5604 338.5573 15.56883126  5915
RSP-03                  
1 65732U 98067XL  25300.44014697  .00074402  00000+0  98141-3 0  9990
2 65732  51.6324  10.3706 0005091  22.4564 337.6650 15.57711504  5923
GHS-01                  
1 65733U 98067XM  25300.48868683  .00098585  00000+0  12256-2 0  9997
2 65733  51.6329   9.9460 0003179  44.4958 315.6289 15.59169468  5939
YOTSUBA-KULOVER         
1 65941U 98067XN  25300.27430305  .00050396  00000+0  80727-3 0  9998
2 65941  51.6336  12.2607 0002448 315.8406  44.2388 15.52592485  2629
BOTAN                   
1 65942U 98067XP  25300.20651253  .00068238  00000+0  10633-2 0  9991
2 65942  51.6340  12.5584 0004340 338.3786  21.7021 15.53223057  2616
E-KAGAKU-1              
1 65943U 98067XQ  25299.43713291  .00049272  00000+0  79166-3 0  9999
2 65943  51.6337  16.4198 0004085 323.6954  36.3758 15.52513453  2493
HRC MONOBLOCK CAMERA    
1 66052U 98067XR  25300.48678656  .00031910  00000+0  55969-3 0  9999
2 66052  51.6329  11.4289 0004124 352.8128   7.2801 15.50254947  1654
HTV-X 1                 
1 66174U 25241A   25300.49424941  .00010095  00000+0  16773-3 0  9996
2 66174  51.6338  11.4824 0004046 344.0379  16.0483 15.52723727   245
